GLOBALSTAR M024 [-]     
1 25883U 99043A   24089.33591372 -.00000018  00000+0  16715-2 0  9998
2 25883  52.0031 304.3554 0002359  91.8510  78.8792 11.10160092 65458
GLOBALSTAR M027 [-]     
1 25884U 99043B   24089.44567515 -.00000100  00000+0 -13640-2 0  9990
2 25884  52.0260   9.4871 0021530 354.6259   5.4300 11.04367333 92103
GLOBALSTAR M054 [-]     
1 25885U 99043C   24089.60892369 -.00000116  00000+0 -11478-2 0  9991
2 25885  52.0123 211.0288 0005376 131.3576 241.5753 11.39205287 68382
GLOBALSTAR M053 [-]     
1 25886U 99043D   24089.43186094 -.00000056  00000+0  36460-3 0  9995
2 25886  51.9959 133.8757 0003191  52.3434 320.1680 11.27654304 69275
GLOBALSTAR M058 [-]     
1 25907U 99049A   24089.81870317 -.00000118  00000+0 -44939-3 0  9995
2 25907  51.9930 215.7308 0003012 137.6473 222.4594 11.93178518 99702
GLOBALSTAR M050 [-]     
1 25908U 99049B   24089.74867891 -.00000036  00000+0  58543-3 0  9995
2 25908  51.9973 256.7981 0008629 221.2466 152.4408 12.07430343 99230
GLOBALSTAR M033 [-]     
1 25909U 99049C   24089.57852559 -.00000096  00000+0 -44629-4 0  9990
2 25909  51.9900 159.8093 0011885  78.2842 281.9338 12.20269679481461
GLOBALSTAR M055 [-]     
1 25910U 99049D   24089.53800645 -.00000036  00000+0  49774-3 0  9995
2 25910  52.0009 192.3077 0006397 286.7654  73.2496 12.29397973113599
